[{"OBJECT_NAME":"STARLINK-5345","OBJECT_ID":"2023-065Q","EPOCH":"2026-03-09T11:27:28.546272","MEAN_MOTION":15.02531997,"ECCENTRICITY":0.00013863,"INCLINATION":43.0037,"RA_OF_ASC_NODE":211.422,"ARG_OF_PERICENTER":272.0276,"MEAN_ANOMALY":88.0407,"EPHEMERIS_TYPE":0,"CLASSIFICATION_TYPE":"U","NORAD_CAT_ID":56517,"ELEMENT_SET_NO":999,"REV_AT_EPOCH":15659,"BSTAR":-1.5983169e-5,"MEAN_MOTION_DOT":-4.2e-6,"MEAN_MOTION_DDOT":0},{"OBJECT_NAME":"OBJECT F","OBJECT_ID":"2025-292F","EPOCH":"2026-03-09T22:41:00.950496","MEAN_MOTION":15.06065121,"ECCENTRICITY":0.00151037,"INCLINATION":97.6416,"RA_OF_ASC_NODE":145.7425,"ARG_OF_PERICENTER":346.7214,"MEAN_ANOMALY":13.3613,"EPHEMERIS_TYPE":0,"CLASSIFICATION_TYPE":"U","NORAD_CAT_ID":66998,"ELEMENT_SET_NO":999,"REV_AT_EPOCH":1351,"BSTAR":0.00047210602,"MEAN_MOTION_DOT":6.85e-5,"MEAN_MOTION_DDOT":0}]
